<?xml version="1.0"?>
<gpx version="1.1" creator="GPS Visualizer http://www.gpsvisualizer.com/" xmlns="http://www.topografix.com/GPX/1/1" xmlns:xsi="http://www.w3.org/2001/XMLSchema-instance" xsi:schemaLocation="http://www.topografix.com/GPX/1/1 http://www.topografix.com/GPX/1/1/gpx.xsd">
<wpt lat="-35.045215348" lon="138.508836329">
  <name>Cafe (Marino Rocks Cafe Restaurant), cnr Marine Parade and Jervois Street, Marino South</name>
  <sym>https://walkingsa.org.au/wp-content/themes/unsemantic_jezremy_child/images/placemarkers/default.png</sym>
</wpt>
<wpt lat="-35.051960433" lon="138.506051945">
  <name>Carpark (between 59B and 61 The Cove Rd, Marino)</name>
  <sym>https://walkingsa.org.au/wp-content/themes/unsemantic_jezremy_child/images/placemarkers/carpark.png</sym>
</wpt>
<wpt lat="-35.044927597" lon="138.508737423">
  <name>Carpark, cnr Marine Parade and Jervois Street, Marino South</name>
  <sym>https://walkingsa.org.au/wp-content/themes/unsemantic_jezremy_child/images/placemarkers/carpark.png</sym>
</wpt>
<wpt lat="-35.079163983" lon="138.49656078">
  <name>Carpark, Heron Way, Hallett Cove</name>
  <sym>https://walkingsa.org.au/wp-content/themes/unsemantic_jezremy_child/images/placemarkers/carpark.png</sym>
</wpt>
<wpt lat="-35.055895234" lon="138.505181903">
  <name>Carparking (access between 9-10 Westcliff Ct, Marino)</name>
  <sym>https://walkingsa.org.au/wp-content/themes/unsemantic_jezremy_child/images/placemarkers/carpark.png</sym>
</wpt>
<wpt lat="-35.048907828" lon="138.507018378">
  <name>Carparking, Murto Road (19 Marine Parade, Marino)</name>
  <sym>https://walkingsa.org.au/wp-content/themes/unsemantic_jezremy_child/images/placemarkers/carpark.png</sym>
</wpt>
<wpt lat="-35.04162102" lon="138.511355007">
  <ele>14.4</ele>
  <name>Contemplation artwork</name>
  <sym>https://walkingsa.org.au/wp-content/themes/unsemantic_jezremy_child/images/placemarkers/default.png</sym>
</wpt>
<wpt lat="-35.07477304" lon="138.495648829">
  <name>Glacial pavement and lookout</name>
  <sym>https://walkingsa.org.au/wp-content/themes/unsemantic_jezremy_child/images/placemarkers/default.png</sym>
</wpt>
<wpt lat="-35.059673795" lon="138.50334459">
  <name>Grey Road Gully</name>
  <sym>https://walkingsa.org.au/wp-content/themes/unsemantic_jezremy_child/images/placemarkers/default.png</sym>
</wpt>
<wpt lat="-35.079251658" lon="138.501992589">
  <name>Hallett Cove Beach train station</name>
  <sym>https://walkingsa.org.au/wp-content/themes/unsemantic_jezremy_child/images/placemarkers/default.png</sym>
</wpt>
<wpt lat="-35.065953769" lon="138.505663779">
  <name>Hallett Cove train station</name>
  <sym>https://walkingsa.org.au/wp-content/themes/unsemantic_jezremy_child/images/placemarkers/default.png</sym>
</wpt>
<wpt lat="-35.072011286" lon="138.497487484">
  <name>Junction, to Glacier Hike</name>
  <sym>https://walkingsa.org.au/wp-content/themes/unsemantic_jezremy_child/images/placemarkers/junction.png</sym>
</wpt>
<wpt lat="-35.077111423" lon="138.496811232">
  <name>Junction, to Sugarloaf and Glacier Hike</name>
  <sym>https://walkingsa.org.au/wp-content/themes/unsemantic_jezremy_child/images/placemarkers/junction.png</sym>
</wpt>
<wpt lat="-35.062842909" lon="138.501911787">
  <name>Kurnabinna Gully</name>
  <sym>https://walkingsa.org.au/wp-content/themes/unsemantic_jezremy_child/images/placemarkers/default.png</sym>
</wpt>
<wpt lat="-35.046081031" lon="138.512748079">
  <name>Marino Rocks train station</name>
  <sym>https://walkingsa.org.au/wp-content/themes/unsemantic_jezremy_child/images/placemarkers/default.png</sym>
</wpt>
<wpt lat="-35.041802321" lon="138.517827848">
  <name>Marino train station</name>
  <sym>https://walkingsa.org.au/wp-content/themes/unsemantic_jezremy_child/images/placemarkers/default.png</sym>
</wpt>
<wpt lat="-35.049069179" lon="138.506815284">
  <name>Murto Gully</name>
  <sym>https://walkingsa.org.au/wp-content/themes/unsemantic_jezremy_child/images/placemarkers/default.png</sym>
</wpt>
<wpt lat="-35.067950422" lon="138.499083314">
  <name>Northern entrance to Hallett Cove Conservation Park</name>
  <sym>https://walkingsa.org.au/wp-content/themes/unsemantic_jezremy_child/images/placemarkers/default.png</sym>
</wpt>
<wpt lat="-35.041462015" lon="138.511627">
  <name>Northern trailhead, Burnham Road (Marino Esplanade), Marino Rocks</name>
  <sym>https://walkingsa.org.au/wp-content/themes/unsemantic_jezremy_child/images/placemarkers/trailhead.png</sym>
</wpt>
<wpt lat="-35.078779506" lon="138.496744679">
  <name>Public toilets, southern side of cafe</name>
  <sym>https://walkingsa.org.au/wp-content/themes/unsemantic_jezremy_child/images/placemarkers/default.png</sym>
</wpt>
<wpt lat="-35.078570545" lon="138.496648623">
  <name>Southern trailhead, Boatshed Cafe, Hallett Cove</name>
  <sym>https://walkingsa.org.au/wp-content/themes/unsemantic_jezremy_child/images/placemarkers/trailhead.png</sym>
</wpt>
<wpt lat="-35.07697287" lon="138.4982986">
  <name>Sugarloaf, Hallett Cove Conservation Park</name>
  <sym>https://walkingsa.org.au/wp-content/themes/unsemantic_jezremy_child/images/placemarkers/default.png</sym>
</wpt>
<wpt lat="-35.044799773" lon="138.508901875">
  <name>Toilets (cnr Marine Parade and Jervois Street, Marino South)</name>
  <sym>https://walkingsa.org.au/wp-content/themes/unsemantic_jezremy_child/images/placemarkers/default.png</sym>
</wpt>
<wpt lat="-35.077034226" lon="138.498256942">
  <name>View to The Amphitheatre, Hallett Cove Conservation Park</name>
  <sym>https://walkingsa.org.au/wp-content/themes/unsemantic_jezremy_child/images/placemarkers/default.png</sym>
</wpt>
<trk>
  <name>Glacier Hike</name>
  <trkseg>
    <trkpt lat="-35.078572724" lon="138.496648874">
      <ele>16.96</ele>
    </trkpt>
    <trkpt lat="-35.07847365" lon="138.496681564">
      <ele>16.0</ele>
    </trkpt>
    <trkpt lat="-35.078396453" lon="138.496697238">
      <ele>15.52</ele>
    </trkpt>
    <trkpt lat="-35.078318501" lon="138.496708721">
      <ele>15.04</ele>
    </trkpt>
    <trkpt lat="-35.078260079" lon="138.496778961">
      <ele>15.52</ele>
    </trkpt>
    <trkpt lat="-35.078124963" lon="138.49674996">
      <ele>14.08</ele>
    </trkpt>
    <trkpt lat="-35.078010969" lon="138.49673504">
      <ele>13.6</ele>
    </trkpt>
    <trkpt lat="-35.077914996" lon="138.49674996">
      <ele>13.6</ele>
    </trkpt>
    <trkpt lat="-35.077793375" lon="138.496739063">
      <ele>13.6</ele>
    </trkpt>
    <trkpt lat="-35.077744843" lon="138.496719701">
      <ele>13.12</ele>
    </trkpt>
    <trkpt lat="-35.077606039" lon="138.49673504">
      <ele>13.6</ele>
    </trkpt>
    <trkpt lat="-35.077506965" lon="138.496795977">
      <ele>14.08</ele>
    </trkpt>
    <trkpt lat="-35.077407975" lon="138.49681098">
      <ele>13.12</ele>
    </trkpt>
    <trkpt lat="-35.077316025" lon="138.496825984">
      <ele>14.08</ele>
    </trkpt>
    <trkpt lat="-35.077090971" lon="138.49681098">
      <ele>14.56</ele>
    </trkpt>
    <trkpt lat="-35.077105975" lon="138.496856997">
      <ele>14.56</ele>
    </trkpt>
    <trkpt lat="-35.077072028" lon="138.496979037">
      <ele>16.0</ele>
    </trkpt>
    <trkpt lat="-35.077030286" lon="138.497101078">
      <ele>17.44</ele>
    </trkpt>
    <trkpt lat="-35.077003213" lon="138.497193446">
      <ele>20.81</ele>
    </trkpt>
    <trkpt lat="-35.077011008" lon="138.497313978">
      <ele>23.21</ele>
    </trkpt>
    <trkpt lat="-35.076996004" lon="138.497421015">
      <ele>25.61</ele>
    </trkpt>
    <trkpt lat="-35.076982928" lon="138.497518497">
      <ele>27.53</ele>
    </trkpt>
    <trkpt lat="-35.07696717" lon="138.497654786">
      <ele>30.42</ele>
    </trkpt>
    <trkpt lat="-35.076966081" lon="138.497770457">
      <ele>32.82</ele>
    </trkpt>
    <trkpt lat="-35.076984102" lon="138.497865424">
      <ele>33.3</ele>
    </trkpt>
    <trkpt lat="-35.077018971" lon="138.497971036">
      <ele>34.26</ele>
    </trkpt>
    <trkpt lat="-35.077028023" lon="138.498088298">
      <ele>35.23</ele>
    </trkpt>
    <trkpt lat="-35.077041518" lon="138.498176392">
      <ele>35.71</ele>
    </trkpt>
    <trkpt lat="-35.077055097" lon="138.498234143">
      <ele>35.71</ele>
    </trkpt>
    <trkpt lat="-35.077044955" lon="138.498302875">
      <ele>37.15</ele>
    </trkpt>
    <trkpt lat="-35.077028023" lon="138.498375798">
      <ele>37.15</ele>
    </trkpt>
    <trkpt lat="-35.077002961" lon="138.498413013">
      <ele>38.11</ele>
    </trkpt>
    <trkpt lat="-35.076944707" lon="138.498462299">
      <ele>33.3</ele>
    </trkpt>
    <trkpt lat="-35.076891817" lon="138.498485684">
      <ele>30.42</ele>
    </trkpt>
    <trkpt lat="-35.076813027" lon="138.498408739">
      <ele>30.42</ele>
    </trkpt>
    <trkpt lat="-35.076778075" lon="138.498361968">
      <ele>28.5</ele>
    </trkpt>
    <trkpt lat="-35.076800622" lon="138.498275382">
      <ele>27.53</ele>
    </trkpt>
    <trkpt lat="-35.076797185" lon="138.498214865">
      <ele>27.53</ele>
    </trkpt>
    <trkpt lat="-35.076739769" lon="138.498147475">
      <ele>27.53</ele>
    </trkpt>
    <trkpt lat="-35.076703727" lon="138.498126855">
      <ele>26.57</ele>
    </trkpt>
    <trkpt lat="-35.076624854" lon="138.498125514">
      <ele>25.13</ele>
    </trkpt>
    <trkpt lat="-35.076533994" lon="138.498031972">
      <ele>23.69</ele>
    </trkpt>
    <trkpt lat="-35.07651899" lon="138.497910015">
      <ele>22.73</ele>
    </trkpt>
    <trkpt lat="-35.076530222" lon="138.497817647">
      <ele>22.25</ele>
    </trkpt>
    <trkpt lat="-35.076547153" lon="138.497758387">
      <ele>22.25</ele>
    </trkpt>
    <trkpt lat="-35.076533575" lon="138.497729553">
      <ele>20.81</ele>
    </trkpt>
    <trkpt lat="-35.076500969" lon="138.497740533">
      <ele>20.81</ele>
    </trkpt>
    <trkpt lat="-35.076478422" lon="138.497784622">
      <ele>20.81</ele>
    </trkpt>
    <trkpt lat="-35.076453611" lon="138.497769451">
      <ele>20.81</ele>
    </trkpt>
    <trkpt lat="-35.076418659" lon="138.497682782">
      <ele>18.88</ele>
    </trkpt>
    <trkpt lat="-35.076395022" lon="138.497648416">
      <ele>18.88</ele>
    </trkpt>
    <trkpt lat="-35.07635328" lon="138.497640118">
      <ele>18.88</ele>
    </trkpt>
    <trkpt lat="-35.076322854" lon="138.497636011">
      <ele>18.88</ele>
    </trkpt>
    <trkpt lat="-35.07630148" lon="138.497596113">
      <ele>17.44</ele>
    </trkpt>
    <trkpt lat="-35.076303659" lon="138.497536853">
      <ele>17.44</ele>
    </trkpt>
    <trkpt lat="-35.076285638" lon="138.497483209">
      <ele>18.88</ele>
    </trkpt>
    <trkpt lat="-35.07623828" lon="138.497441886">
      <ele>18.88</ele>
    </trkpt>
    <trkpt lat="-35.07618078" lon="138.497433588">
      <ele>20.81</ele>
    </trkpt>
    <trkpt lat="-35.076121101" lon="138.497454291">
      <ele>22.25</ele>
    </trkpt>
    <trkpt lat="-35.076102996" lon="138.497573985">
      <ele>25.13</ele>
    </trkpt>
    <trkpt lat="-35.076087993" lon="138.497681022">
      <ele>28.02</ele>
    </trkpt>
    <trkpt lat="-35.076102996" lon="138.497786969">
      <ele>31.38</ele>
    </trkpt>
    <trkpt lat="-35.076098638" lon="138.497908674">
      <ele>34.26</ele>
    </trkpt>
    <trkpt lat="-35.076091848" lon="138.498007832">
      <ele>34.26</ele>
    </trkpt>
    <trkpt lat="-35.076093022" lon="138.498071115">
      <ele>36.19</ele>
    </trkpt>
    <trkpt lat="-35.076062763" lon="138.498157617">
      <ele>37.63</ele>
    </trkpt>
    <trkpt lat="-35.07601968" lon="138.498263983">
      <ele>39.55</ele>
    </trkpt>
    <trkpt lat="-35.075994954" lon="138.498343779">
      <ele>39.55</ele>
    </trkpt>
    <trkpt lat="-35.075993026" lon="138.498474034">
      <ele>37.15</ele>
    </trkpt>
    <trkpt lat="-35.075957989" lon="138.498580987">
      <ele>37.63</ele>
    </trkpt>
    <trkpt lat="-35.075905016" lon="138.498672014">
      <ele>39.07</ele>
    </trkpt>
    <trkpt lat="-35.075839972" lon="138.498763964">
      <ele>40.51</ele>
    </trkpt>
    <trkpt lat="-35.075767469" lon="138.4987731">
      <ele>40.03</ele>
    </trkpt>
    <trkpt lat="-35.075716758" lon="138.498745607">
      <ele>40.03</ele>
    </trkpt>
    <trkpt lat="-35.075671999" lon="138.498763964">
      <ele>41.47</ele>
    </trkpt>
    <trkpt lat="-35.075595975" lon="138.498794977">
      <ele>40.51</ele>
    </trkpt>
    <trkpt lat="-35.075507965" lon="138.498824984">
      <ele>40.99</ele>
    </trkpt>
    <trkpt lat="-35.075401012" lon="138.498855997">
      <ele>41.47</ele>
    </trkpt>
    <trkpt lat="-35.075330436" lon="138.498856751">
      <ele>40.51</ele>
    </trkpt>
    <trkpt lat="-35.07529892" lon="138.498814171">
      <ele>40.51</ele>
    </trkpt>
    <trkpt lat="-35.075231446" lon="138.498800425">
      <ele>40.51</ele>
    </trkpt>
    <trkpt lat="-35.075135725" lon="138.498821044">
      <ele>41.95</ele>
    </trkpt>
    <trkpt lat="-35.075097419" lon="138.498821044">
      <ele>41.95</ele>
    </trkpt>
    <trkpt lat="-35.075080572" lon="138.498786679">
      <ele>44.84</ele>
    </trkpt>
    <trkpt lat="-35.075037824" lon="138.498746781">
      <ele>44.84</ele>
    </trkpt>
    <trkpt lat="-35.075006308" lon="138.498739908">
      <ele>44.84</ele>
    </trkpt>
    <trkpt lat="-35.074946964" lon="138.49874896">
      <ele>44.36</ele>
    </trkpt>
    <trkpt lat="-35.074866749" lon="138.498752313">
      <ele>46.28</ele>
    </trkpt>
    <trkpt lat="-35.074756863" lon="138.49870286">
      <ele>49.16</ele>
    </trkpt>
    <trkpt lat="-35.074693831" lon="138.498647874">
      <ele>53.01</ele>
    </trkpt>
    <trkpt lat="-35.074653262" lon="138.498547543">
      <ele>54.45</ele>
    </trkpt>
    <trkpt lat="-35.074593667" lon="138.498504963">
      <ele>54.45</ele>
    </trkpt>
    <trkpt lat="-35.074562151" lon="138.498459617">
      <ele>56.86</ele>
    </trkpt>
    <trkpt lat="-35.074502556" lon="138.4983675">
      <ele>59.26</ele>
    </trkpt>
    <trkpt lat="-35.074475566" lon="138.498311173">
      <ele>58.78</ele>
    </trkpt>
    <trkpt lat="-35.074433908" lon="138.498184858">
      <ele>57.82</ele>
    </trkpt>
    <trkpt lat="-35.074416976" lon="138.498076983">
      <ele>57.34</ele>
    </trkpt>
    <trkpt lat="-35.074374983" lon="138.497955026">
      <ele>57.34</ele>
    </trkpt>
    <trkpt lat="-35.074306" lon="138.497879002">
      <ele>57.34</ele>
    </trkpt>
    <trkpt lat="-35.074233999" lon="138.497786969">
      <ele>56.37</ele>
    </trkpt>
    <trkpt lat="-35.074145989" lon="138.497726033">
      <ele>56.37</ele>
    </trkpt>
    <trkpt lat="-35.074069966" lon="138.497681022">
      <ele>54.93</ele>
    </trkpt>
    <trkpt lat="-35.073955972" lon="138.497681022">
      <ele>54.93</ele>
    </trkpt>
    <trkpt lat="-35.073864022" lon="138.497681022">
      <ele>53.97</ele>
    </trkpt>
    <trkpt lat="-35.073765032" lon="138.497711029">
      <ele>53.49</ele>
    </trkpt>
    <trkpt lat="-35.073653972" lon="138.497741958">
      <ele>52.05</ele>
    </trkpt>
    <trkpt lat="-35.073563028" lon="138.497771965">
      <ele>52.05</ele>
    </trkpt>
    <trkpt lat="-35.073451968" lon="138.497786969">
      <ele>50.61</ele>
    </trkpt>
    <trkpt lat="-35.073340992" lon="138.497771965">
      <ele>49.65</ele>
    </trkpt>
    <trkpt lat="-35.073242001" lon="138.497711029">
      <ele>50.13</ele>
    </trkpt>
    <trkpt lat="-35.073174024" lon="138.497650009">
      <ele>49.65</ele>
    </trkpt>
    <trkpt lat="-35.073096994" lon="138.497573985">
      <ele>49.16</ele>
    </trkpt>
    <trkpt lat="-35.072945198" lon="138.497473067">
      <ele>47.72</ele>
    </trkpt>
    <trkpt lat="-35.072845034" lon="138.497421015">
      <ele>47.24</ele>
    </trkpt>
    <trkpt lat="-35.072767334" lon="138.497371813">
      <ele>46.76</ele>
    </trkpt>
    <trkpt lat="-35.072683096" lon="138.49731951">
      <ele>45.32</ele>
    </trkpt>
    <trkpt lat="-35.072593996" lon="138.497268967">
      <ele>44.84</ele>
    </trkpt>
    <trkpt lat="-35.072541358" lon="138.497219766">
      <ele>44.36</ele>
    </trkpt>
    <trkpt lat="-35.072453013" lon="138.497268967">
      <ele>41.95</ele>
    </trkpt>
    <trkpt lat="-35.072336672" lon="138.497303082">
      <ele>38.11</ele>
    </trkpt>
    <trkpt lat="-35.07225235" lon="138.49734717">
      <ele>36.19</ele>
    </trkpt>
    <trkpt lat="-35.072157383" lon="138.497404335">
      <ele>34.26</ele>
    </trkpt>
    <trkpt lat="-35.072082365" lon="138.497461583">
      <ele>33.3</ele>
    </trkpt>
    <trkpt lat="-35.072000725" lon="138.497538362">
      <ele>33.3</ele>
    </trkpt>
    <trkpt lat="-35.072006006" lon="138.497467032">
      <ele>33.3</ele>
    </trkpt>
    <trkpt lat="-35.072038611" lon="138.497349769">
      <ele>31.38</ele>
    </trkpt>
    <trkpt lat="-35.072055962" lon="138.497253042">
      <ele>31.38</ele>
    </trkpt>
    <trkpt lat="-35.072101979" lon="138.497131001">
      <ele>30.9</ele>
    </trkpt>
    <trkpt lat="-35.072158976" lon="138.49702497">
      <ele>30.42</ele>
    </trkpt>
    <trkpt lat="-35.07224204" lon="138.496940983">
      <ele>29.94</ele>
    </trkpt>
    <trkpt lat="-35.072323009" lon="138.496872">
      <ele>29.94</ele>
    </trkpt>
    <trkpt lat="-35.072379587" lon="138.496816428">
      <ele>30.42</ele>
    </trkpt>
    <trkpt lat="-35.072430046" lon="138.496806705">
      <ele>30.42</ele>
    </trkpt>
    <trkpt lat="-35.072507244" lon="138.496815255">
      <ele>30.42</ele>
    </trkpt>
    <trkpt lat="-35.072577484" lon="138.496787427">
      <ele>30.42</ele>
    </trkpt>
    <trkpt lat="-35.072615119" lon="138.496783823">
      <ele>30.42</ele>
    </trkpt>
    <trkpt lat="-35.072716037" lon="138.49674996">
      <ele>30.42</ele>
    </trkpt>
    <trkpt lat="-35.072772279" lon="138.496671254">
      <ele>29.94</ele>
    </trkpt>
    <trkpt lat="-35.072883088" lon="138.496579304">
      <ele>30.42</ele>
    </trkpt>
    <trkpt lat="-35.072980151" lon="138.496507974">
      <ele>30.42</ele>
    </trkpt>
    <trkpt lat="-35.073076123" lon="138.496470507">
      <ele>30.42</ele>
    </trkpt>
    <trkpt lat="-35.073177041" lon="138.496439075">
      <ele>30.42</ele>
    </trkpt>
    <trkpt lat="-35.073243175" lon="138.496396579">
      <ele>29.46</ele>
    </trkpt>
    <trkpt lat="-35.073317355" lon="138.496280489">
      <ele>30.42</ele>
    </trkpt>
    <trkpt lat="-35.073389607" lon="138.496205471">
      <ele>30.9</ele>
    </trkpt>
    <trkpt lat="-35.073445011" lon="138.496115953">
      <ele>30.9</ele>
    </trkpt>
    <trkpt lat="-35.073563028" lon="138.496093992">
      <ele>29.94</ele>
    </trkpt>
    <trkpt lat="-35.073666042" lon="138.496062979">
      <ele>29.46</ele>
    </trkpt>
    <trkpt lat="-35.073756985" lon="138.496032972">
      <ele>28.98</ele>
    </trkpt>
    <trkpt lat="-35.073850527" lon="138.496012772">
      <ele>29.94</ele>
    </trkpt>
    <trkpt lat="-35.073898053" lon="138.495998271">
      <ele>29.94</ele>
    </trkpt>
    <trkpt lat="-35.073912889" lon="138.495942699">
      <ele>29.46</ele>
    </trkpt>
    <trkpt lat="-35.073921774" lon="138.495899113">
      <ele>29.46</ele>
    </trkpt>
    <trkpt lat="-35.074010873" lon="138.495820491">
      <ele>29.94</ele>
    </trkpt>
    <trkpt lat="-35.074087149" lon="138.495812025">
      <ele>29.46</ele>
    </trkpt>
    <trkpt lat="-35.07416904" lon="138.495803978">
      <ele>28.98</ele>
    </trkpt>
    <trkpt lat="-35.074260989" lon="138.495788975">
      <ele>28.02</ele>
    </trkpt>
    <trkpt lat="-35.07435604" lon="138.495743042">
      <ele>27.53</ele>
    </trkpt>
    <trkpt lat="-35.074451007" lon="138.495712029">
      <ele>27.05</ele>
    </trkpt>
    <trkpt lat="-35.074554021" lon="138.495697025">
      <ele>27.05</ele>
    </trkpt>
    <trkpt lat="-35.07464597" lon="138.495682022">
      <ele>25.13</ele>
    </trkpt>
    <trkpt lat="-35.074741021" lon="138.495651009">
      <ele>22.73</ele>
    </trkpt>
    <trkpt lat="-35.074768011" lon="138.495651009">
      <ele>23.21</ele>
    </trkpt>
    <trkpt lat="-35.074822828" lon="138.495685793">
      <ele>24.17</ele>
    </trkpt>
    <trkpt lat="-35.074823834" lon="138.495768104">
      <ele>24.17</ele>
    </trkpt>
    <trkpt lat="-35.074783182" lon="138.495874722">
      <ele>21.77</ele>
    </trkpt>
    <trkpt lat="-35.074764322" lon="138.495924342">
      <ele>20.32</ele>
    </trkpt>
    <trkpt lat="-35.074760383" lon="138.495970359">
      <ele>19.84</ele>
    </trkpt>
    <trkpt lat="-35.07479609" lon="138.496004306">
      <ele>17.44</ele>
    </trkpt>
    <trkpt lat="-35.074827773" lon="138.496028529">
      <ele>16.48</ele>
    </trkpt>
    <trkpt lat="-35.074886279" lon="138.496102374">
      <ele>15.04</ele>
    </trkpt>
    <trkpt lat="-35.074907066" lon="138.496105978">
      <ele>13.12</ele>
    </trkpt>
    <trkpt lat="-35.074959621" lon="138.496080581">
      <ele>13.12</ele>
    </trkpt>
    <trkpt lat="-35.075112926" lon="138.49627479">
      <ele>11.67</ele>
    </trkpt>
    <trkpt lat="-35.075191213" lon="138.496359531">
      <ele>11.19</ele>
    </trkpt>
    <trkpt lat="-35.075257597" lon="138.496455168">
      <ele>10.71</ele>
    </trkpt>
    <trkpt lat="-35.075292299" lon="138.496512081">
      <ele>11.19</ele>
    </trkpt>
    <trkpt lat="-35.075427163" lon="138.496588357">
      <ele>11.19</ele>
    </trkpt>
    <trkpt lat="-35.075501427" lon="138.496590788">
      <ele>11.19</ele>
    </trkpt>
    <trkpt lat="-35.07560553" lon="138.496611407">
      <ele>11.19</ele>
    </trkpt>
    <trkpt lat="-35.075692702" lon="138.496635379">
      <ele>11.67</ele>
    </trkpt>
    <trkpt lat="-35.07577694" lon="138.496653568">
      <ele>11.19</ele>
    </trkpt>
    <trkpt lat="-35.075857239" lon="138.496669326">
      <ele>11.67</ele>
    </trkpt>
    <trkpt lat="-35.076002916" lon="138.496735878">
      <ele>11.67</ele>
    </trkpt>
    <trkpt lat="-35.076062344" lon="138.496732274">
      <ele>11.19</ele>
    </trkpt>
    <trkpt lat="-35.076176338" lon="138.496723725">
      <ele>11.67</ele>
    </trkpt>
    <trkpt lat="-35.076289326" lon="138.496727329">
      <ele>11.67</ele>
    </trkpt>
    <trkpt lat="-35.07639301" lon="138.49673504">
      <ele>12.15</ele>
    </trkpt>
    <trkpt lat="-35.076488899" lon="138.496725988">
      <ele>12.15</ele>
    </trkpt>
    <trkpt lat="-35.076603899" lon="138.496736884">
      <ele>12.63</ele>
    </trkpt>
    <trkpt lat="-35.076690987" lon="138.49674996">
      <ele>13.6</ele>
    </trkpt>
    <trkpt lat="-35.076792156" lon="138.496757504">
      <ele>13.12</ele>
    </trkpt>
    <trkpt lat="-35.076900031" lon="138.496764963">
      <ele>13.6</ele>
    </trkpt>
    <trkpt lat="-35.076996004" lon="138.496779967">
      <ele>14.08</ele>
    </trkpt>
    <trkpt lat="-35.077090971" lon="138.49681098">
      <ele>14.56</ele>
    </trkpt>
    <trkpt lat="-35.077202031" lon="138.496825984">
      <ele>13.6</ele>
    </trkpt>
    <trkpt lat="-35.077316025" lon="138.496825984">
      <ele>14.08</ele>
    </trkpt>
    <trkpt lat="-35.077407975" lon="138.49681098">
      <ele>13.12</ele>
    </trkpt>
    <trkpt lat="-35.077506965" lon="138.496795977">
      <ele>14.08</ele>
    </trkpt>
    <trkpt lat="-35.077606039" lon="138.49673504">
      <ele>13.6</ele>
    </trkpt>
    <trkpt lat="-35.077744843" lon="138.496719701">
      <ele>13.12</ele>
    </trkpt>
    <trkpt lat="-35.077793375" lon="138.496739063">
      <ele>13.6</ele>
    </trkpt>
    <trkpt lat="-35.077914996" lon="138.49674996">
      <ele>13.6</ele>
    </trkpt>
    <trkpt lat="-35.078010969" lon="138.49673504">
      <ele>13.6</ele>
    </trkpt>
    <trkpt lat="-35.078124963" lon="138.49674996">
      <ele>14.08</ele>
    </trkpt>
    <trkpt lat="-35.078260079" lon="138.496778961">
      <ele>15.52</ele>
    </trkpt>
    <trkpt lat="-35.078318501" lon="138.496708721">
      <ele>15.04</ele>
    </trkpt>
    <trkpt lat="-35.078396453" lon="138.496697238">
      <ele>15.52</ele>
    </trkpt>
    <trkpt lat="-35.07847365" lon="138.496681564">
      <ele>16.0</ele>
    </trkpt>
    <trkpt lat="-35.078572724" lon="138.496648874">
      <ele>16.96</ele>
    </trkpt>
  </trkseg>
</trk>
<trk>
  <name>Hallett Cove Boardwalk / Marion Coastal Walking Trail</name>
  <trkseg>
    <trkpt lat="-35.041462015" lon="138.511627">
      <ele>14.08</ele>
    </trkpt>
    <trkpt lat="-35.041534016" lon="138.511550976">
      <ele>15.52</ele>
    </trkpt>
    <trkpt lat="-35.041622026" lon="138.511504959">
      <ele>16.96</ele>
    </trkpt>
    <trkpt lat="-35.041706013" lon="138.511444023">
      <ele>18.4</ele>
    </trkpt>
    <trkpt lat="-35.041797962" lon="138.511383003">
      <ele>18.88</ele>
    </trkpt>
    <trkpt lat="-35.041882033" lon="138.511336986">
      <ele>20.32</ele>
    </trkpt>
    <trkpt lat="-35.041954033" lon="138.511275966">
      <ele>22.25</ele>
    </trkpt>
    <trkpt lat="-35.042027039" lon="138.511185022">
      <ele>23.21</ele>
    </trkpt>
    <trkpt lat="-35.04209904" lon="138.511107992">
      <ele>23.21</ele>
    </trkpt>
    <trkpt lat="-35.042168023" lon="138.511016965">
      <ele>23.69</ele>
    </trkpt>
    <trkpt lat="-35.042220997" lon="138.510910012">
      <ele>23.69</ele>
    </trkpt>
    <trkpt lat="-35.042294003" lon="138.510817979">
      <ele>24.17</ele>
    </trkpt>
    <trkpt lat="-35.042376984" lon="138.510742038">
      <ele>25.13</ele>
    </trkpt>
    <trkpt lat="-35.04243901" lon="138.510666015">
      <ele>26.09</ele>
    </trkpt>
    <trkpt lat="-35.042515034" lon="138.510573981">
      <ele>26.57</ele>
    </trkpt>
    <trkpt lat="-35.04260296" lon="138.510528971">
      <ele>26.57</ele>
    </trkpt>
    <trkpt lat="-35.042686025" lon="138.510483038">
      <ele>26.09</ele>
    </trkpt>
    <trkpt lat="-35.042774035" lon="138.510422017">
      <ele>26.57</ele>
    </trkpt>
    <trkpt lat="-35.042839916" lon="138.510330319">
      <ele>25.61</ele>
    </trkpt>
    <trkpt lat="-35.042895991" lon="138.510268964">
      <ele>26.09</ele>
    </trkpt>
    <trkpt lat="-35.042976039" lon="138.510208027">
      <ele>25.13</ele>
    </trkpt>
    <trkpt lat="-35.043057594" lon="138.510179026">
      <ele>24.65</ele>
    </trkpt>
    <trkpt lat="-35.043084165" lon="138.510143654">
      <ele>23.69</ele>
    </trkpt>
    <trkpt lat="-35.04312817" lon="138.510010717">
      <ele>24.17</ele>
    </trkpt>
    <trkpt lat="-35.043201009" lon="138.50984199">
      <ele>24.65</ele>
    </trkpt>
    <trkpt lat="-35.043256665" lon="138.509753309">
      <ele>24.65</ele>
    </trkpt>
    <trkpt lat="-35.043330761" lon="138.509696731">
      <ele>24.17</ele>
    </trkpt>
    <trkpt lat="-35.043395637" lon="138.509675609">
      <ele>24.65</ele>
    </trkpt>
    <trkpt lat="-35.043462859" lon="138.509659097">
      <ele>24.65</ele>
    </trkpt>
    <trkpt lat="-35.043539302" lon="138.509609643">
      <ele>24.65</ele>
    </trkpt>
    <trkpt lat="-35.043565873" lon="138.509565806">
      <ele>26.09</ele>
    </trkpt>
    <trkpt lat="-35.043595964" lon="138.509456925">
      <ele>26.09</ele>
    </trkpt>
    <trkpt lat="-35.043607615" lon="138.509280151">
      <ele>24.17</ele>
    </trkpt>
    <trkpt lat="-35.043629827" lon="138.509225668">
      <ele>23.69</ele>
    </trkpt>
    <trkpt lat="-35.04371197" lon="138.509111088">
      <ele>23.69</ele>
    </trkpt>
    <trkpt lat="-35.043754969" lon="138.509017965">
      <ele>23.69</ele>
    </trkpt>
    <trkpt lat="-35.043827808" lon="138.508930122">
      <ele>23.21</ele>
    </trkpt>
    <trkpt lat="-35.043907687" lon="138.50885083">
      <ele>23.21</ele>
    </trkpt>
    <trkpt lat="-35.043937275" lon="138.508828785">
      <ele>23.21</ele>
    </trkpt>
    <trkpt lat="-35.044028973" lon="138.508819984">
      <ele>22.73</ele>
    </trkpt>
    <trkpt lat="-35.04406577" lon="138.508803388">
      <ele>23.21</ele>
    </trkpt>
    <trkpt lat="-35.044178087" lon="138.508688724">
      <ele>23.21</ele>
    </trkpt>
    <trkpt lat="-35.044202395" lon="138.508664584">
      <ele>23.21</ele>
    </trkpt>
    <trkpt lat="-35.044212872" lon="138.508660393">
      <ele>23.21</ele>
    </trkpt>
    <trkpt lat="-35.044229049" lon="138.508660393">
      <ele>23.21</ele>
    </trkpt>
    <trkpt lat="-35.044284621" lon="138.508681599">
      <ele>24.17</ele>
    </trkpt>
    <trkpt lat="-35.044318233" lon="138.50870708">
      <ele>24.17</ele>
    </trkpt>
    <trkpt lat="-35.044377996" lon="138.508696519">
      <ele>23.21</ele>
    </trkpt>
    <trkpt lat="-35.044471789" lon="138.508687969">
      <ele>23.21</ele>
    </trkpt>
    <trkpt lat="-35.044571366" lon="138.508671038">
      <ele>23.21</ele>
    </trkpt>
    <trkpt lat="-35.044633895" lon="138.508649832">
      <ele>23.21</ele>
    </trkpt>
    <trkpt lat="-35.04466516" lon="138.508668188">
      <ele>21.77</ele>
    </trkpt>
    <trkpt lat="-35.04473934" lon="138.508704985">
      <ele>21.77</ele>
    </trkpt>
    <trkpt lat="-35.04475669" lon="138.508734656">
      <ele>20.81</ele>
    </trkpt>
    <trkpt lat="-35.044807652" lon="138.508816715">
      <ele>20.81</ele>
    </trkpt>
    <trkpt lat="-35.044794912" lon="138.508775728">
      <ele>20.81</ele>
    </trkpt>
    <trkpt lat="-35.04474395" lon="138.508686628">
      <ele>20.81</ele>
    </trkpt>
    <trkpt lat="-35.044826176" lon="138.508812524">
      <ele>19.84</ele>
    </trkpt>
    <trkpt lat="-35.044872025" lon="138.508682018">
      <ele>19.84</ele>
    </trkpt>
    <trkpt lat="-35.044932961" lon="138.508620998">
      <ele>20.32</ele>
    </trkpt>
    <trkpt lat="-35.045024995" lon="138.508605994">
      <ele>21.77</ele>
    </trkpt>
    <trkpt lat="-35.045132032" lon="138.508590991">
      <ele>23.21</ele>
    </trkpt>
    <trkpt lat="-35.045211324" lon="138.508580765">
      <ele>24.65</ele>
    </trkpt>
    <trkpt lat="-35.045323642" lon="138.508585123">
      <ele>27.53</ele>
    </trkpt>
    <trkpt lat="-35.045423135" lon="138.508580932">
      <ele>28.02</ele>
    </trkpt>
    <trkpt lat="-35.045524975" lon="138.508578083">
      <ele>28.98</ele>
    </trkpt>
    <trkpt lat="-35.045627989" lon="138.508568276">
      <ele>31.38</ele>
    </trkpt>
    <trkpt lat="-35.045726392" lon="138.50855411">
      <ele>31.38</ele>
    </trkpt>
    <trkpt lat="-35.045832675" lon="138.50853743">
      <ele>32.34</ele>
    </trkpt>
    <trkpt lat="-35.045936778" lon="138.508513374">
      <ele>32.34</ele>
    </trkpt>
    <trkpt lat="-35.046024034" lon="138.508499041">
      <ele>31.38</ele>
    </trkpt>
    <trkpt lat="-35.046120007" lon="138.508469034">
      <ele>30.9</ele>
    </trkpt>
    <trkpt lat="-35.04622302" lon="138.508453025">
      <ele>29.94</ele>
    </trkpt>
    <trkpt lat="-35.046317987" lon="138.508423017">
      <ele>29.46</ele>
    </trkpt>
    <trkpt lat="-35.046417145" lon="138.5083884">
      <ele>28.98</ele>
    </trkpt>
    <trkpt lat="-35.046509011" lon="138.508361997">
      <ele>29.94</ele>
    </trkpt>
    <trkpt lat="-35.046603475" lon="138.508336097">
      <ele>30.9</ele>
    </trkpt>
    <trkpt lat="-35.046697268" lon="138.508305084">
      <ele>32.82</ele>
    </trkpt>
    <trkpt lat="-35.046802964" lon="138.508269964">
      <ele>33.3</ele>
    </trkpt>
    <trkpt lat="-35.046880078" lon="138.508230234">
      <ele>33.3</ele>
    </trkpt>
    <trkpt lat="-35.046963394" lon="138.508139709">
      <ele>33.3</ele>
    </trkpt>
    <trkpt lat="-35.047036316" lon="138.508062009">
      <ele>32.34</ele>
    </trkpt>
    <trkpt lat="-35.047115022" lon="138.507995959">
      <ele>32.34</ele>
    </trkpt>
    <trkpt lat="-35.047215018" lon="138.507919014">
      <ele>32.34</ele>
    </trkpt>
    <trkpt lat="-35.047305962" lon="138.507857993">
      <ele>31.86</ele>
    </trkpt>
    <trkpt lat="-35.047405036" lon="138.507796973">
      <ele>32.34</ele>
    </trkpt>
    <trkpt lat="-35.047496986" lon="138.507736037">
      <ele>31.86</ele>
    </trkpt>
    <trkpt lat="-35.047604693" lon="138.507656492">
      <ele>32.34</ele>
    </trkpt>
    <trkpt lat="-35.04770536" lon="138.507573176">
      <ele>31.86</ele>
    </trkpt>
    <trkpt lat="-35.047796723" lon="138.507502517">
      <ele>32.82</ele>
    </trkpt>
    <trkpt lat="-35.047892779" lon="138.507434707">
      <ele>32.34</ele>
    </trkpt>
    <trkpt lat="-35.047973748" lon="138.507386679">
      <ele>33.3</ele>
    </trkpt>
    <trkpt lat="-35.048066368" lon="138.507342841">
      <ele>33.78</ele>
    </trkpt>
    <trkpt lat="-35.048169298" lon="138.50731317">
      <ele>33.78</ele>
    </trkpt>
    <trkpt lat="-35.04827206" lon="138.507279977">
      <ele>34.26</ele>
    </trkpt>
    <trkpt lat="-35.048357723" lon="138.507256005">
      <ele>34.74</ele>
    </trkpt>
    <trkpt lat="-35.048444476" lon="138.507233374">
      <ele>35.23</ele>
    </trkpt>
    <trkpt lat="-35.048540533" lon="138.507192386">
      <ele>35.23</ele>
    </trkpt>
    <trkpt lat="-35.048626112" lon="138.507157099">
      <ele>35.23</ele>
    </trkpt>
    <trkpt lat="-35.048722168" lon="138.507121811">
      <ele>36.19</ele>
    </trkpt>
    <trkpt lat="-35.048806574" lon="138.507085014">
      <ele>36.67</ele>
    </trkpt>
    <trkpt lat="-35.048887543" lon="138.507049726">
      <ele>36.19</ele>
    </trkpt>
    <trkpt lat="-35.048930375" lon="138.507020054">
      <ele>36.19</ele>
    </trkpt>
    <trkpt lat="-35.048950072" lon="138.506952161">
      <ele>36.67</ele>
    </trkpt>
    <trkpt lat="-35.048945965" lon="138.506865995">
      <ele>33.78</ele>
    </trkpt>
    <trkpt lat="-35.048979074" lon="138.506711517">
      <ele>31.86</ele>
    </trkpt>
    <trkpt lat="-35.049004555" lon="138.506727107">
      <ele>31.86</ele>
    </trkpt>
    <trkpt lat="-35.049029952" lon="138.506781003">
      <ele>27.53</ele>
    </trkpt>
    <trkpt lat="-35.049076052" lon="138.506835233">
      <ele>27.53</ele>
    </trkpt>
    <trkpt lat="-35.049108407" lon="138.506846633">
      <ele>27.53</ele>
    </trkpt>
    <trkpt lat="-35.049150065" lon="138.506821152">
      <ele>28.02</ele>
    </trkpt>
    <trkpt lat="-35.049190549" lon="138.506720737">
      <ele>28.02</ele>
    </trkpt>
    <trkpt lat="-35.049300436" lon="138.506647311">
      <ele>30.9</ele>
    </trkpt>
    <trkpt lat="-35.049406886" lon="138.506593667">
      <ele>33.78</ele>
    </trkpt>
    <trkpt lat="-35.049507553" lon="138.506576736">
      <ele>35.23</ele>
    </trkpt>
    <trkpt lat="-35.049605872" lon="138.506517392">
      <ele>35.23</ele>
    </trkpt>
    <trkpt lat="-35.049743503" lon="138.506513201">
      <ele>34.26</ele>
    </trkpt>
    <trkpt lat="-35.049800249" lon="138.506492078">
      <ele>33.3</ele>
    </trkpt>
    <trkpt lat="-35.049859844" lon="138.506430387">
      <ele>35.71</ele>
    </trkpt>
    <trkpt lat="-35.04995699" lon="138.506386634">
      <ele>37.15</ele>
    </trkpt>
    <trkpt lat="-35.050063441" lon="138.506338606">
      <ele>37.15</ele>
    </trkpt>
    <trkpt lat="-35.050131669" lon="138.506303318">
      <ele>36.19</ele>
    </trkpt>
    <trkpt lat="-35.050198808" lon="138.506256631">
      <ele>36.19</ele>
    </trkpt>
    <trkpt lat="-35.050253123" lon="138.506236849">
      <ele>36.67</ele>
    </trkpt>
    <trkpt lat="-35.050321436" lon="138.506176081">
      <ele>36.19</ele>
    </trkpt>
    <trkpt lat="-35.050418582" lon="138.506103912">
      <ele>35.71</ele>
    </trkpt>
    <trkpt lat="-35.050475327" lon="138.506062841">
      <ele>34.74</ele>
    </trkpt>
    <trkpt lat="-35.050559985" lon="138.506057644">
      <ele>34.74</ele>
    </trkpt>
    <trkpt lat="-35.050635254" lon="138.506062506">
      <ele>34.26</ele>
    </trkpt>
    <trkpt lat="-35.050683701" lon="138.506056471">
      <ele>32.34</ele>
    </trkpt>
    <trkpt lat="-35.050716391" lon="138.505991176">
      <ele>30.9</ele>
    </trkpt>
    <trkpt lat="-35.050814291" lon="138.505854299">
      <ele>31.38</ele>
    </trkpt>
    <trkpt lat="-35.050886543" lon="138.505824041">
      <ele>31.38</ele>
    </trkpt>
    <trkpt lat="-35.050960807" lon="138.505822867">
      <ele>29.94</ele>
    </trkpt>
    <trkpt lat="-35.05104295" lon="138.50584114">
      <ele>29.46</ele>
    </trkpt>
    <trkpt lat="-35.051109251" lon="138.505902914">
      <ele>28.02</ele>
    </trkpt>
    <trkpt lat="-35.05114588" lon="138.505937951">
      <ele>28.02</ele>
    </trkpt>
    <trkpt lat="-35.051188376" lon="138.505956139">
      <ele>29.94</ele>
    </trkpt>
    <trkpt lat="-35.051237326" lon="138.505954295">
      <ele>29.94</ele>
    </trkpt>
    <trkpt lat="-35.051281918" lon="138.505922863">
      <ele>32.34</ele>
    </trkpt>
    <trkpt lat="-35.051295748" lon="138.505875757">
      <ele>32.34</ele>
    </trkpt>
    <trkpt lat="-35.051295748" lon="138.505818844">
      <ele>33.78</ele>
    </trkpt>
    <trkpt lat="-35.051318463" lon="138.505778946">
      <ele>33.78</ele>
    </trkpt>
    <trkpt lat="-35.051390715" lon="138.50577903">
      <ele>35.23</ele>
    </trkpt>
    <trkpt lat="-35.051501524" lon="138.505737958">
      <ele>34.74</ele>
    </trkpt>
    <trkpt lat="-35.051578721" lon="138.505692026">
      <ele>34.74</ele>
    </trkpt>
    <trkpt lat="-35.051647956" lon="138.505633939">
      <ele>33.78</ele>
    </trkpt>
    <trkpt lat="-35.051755914" lon="138.505546767">
      <ele>33.78</ele>
    </trkpt>
    <trkpt lat="-35.05185063" lon="138.505573086">
      <ele>34.74</ele>
    </trkpt>
    <trkpt lat="-35.051929755" lon="138.505591275">
      <ele>35.71</ele>
    </trkpt>
    <trkpt lat="-35.051969402" lon="138.50558524">
      <ele>35.71</ele>
    </trkpt>
    <trkpt lat="-35.052003013" lon="138.505546516">
      <ele>37.15</ele>
    </trkpt>
    <trkpt lat="-35.052036624" lon="138.505510138">
      <ele>37.15</ele>
    </trkpt>
    <trkpt lat="-35.052120779" lon="138.505484657">
      <ele>36.19</ele>
    </trkpt>
    <trkpt lat="-35.052157408" lon="138.505426487">
      <ele>34.26</ele>
    </trkpt>
    <trkpt lat="-35.052189091" lon="138.505370747">
      <ele>32.34</ele>
    </trkpt>
    <trkpt lat="-35.052304929" lon="138.505272679">
      <ele>27.05</ele>
    </trkpt>
    <trkpt lat="-35.052361423" lon="138.505224315">
      <ele>23.69</ele>
    </trkpt>
    <trkpt lat="-35.052436525" lon="138.505266141">
      <ele>23.69</ele>
    </trkpt>
    <trkpt lat="-35.052492935" lon="138.505266141">
      <ele>25.61</ele>
    </trkpt>
    <trkpt lat="-35.052569211" lon="138.505255328">
      <ele>28.98</ele>
    </trkpt>
    <trkpt lat="-35.052684043" lon="138.505312409">
      <ele>30.9</ele>
    </trkpt>
    <trkpt lat="-35.052746404" lon="138.505319702">
      <ele>31.86</ele>
    </trkpt>
    <trkpt lat="-35.052826535" lon="138.505273685">
      <ele>34.26</ele>
    </trkpt>
    <trkpt lat="-35.05289183" lon="138.505261615">
      <ele>36.67</ele>
    </trkpt>
    <trkpt lat="-35.053027365" lon="138.50528961">
      <ele>38.11</ele>
    </trkpt>
    <trkpt lat="-35.053087547" lon="138.505331185">
      <ele>38.11</ele>
    </trkpt>
    <trkpt lat="-35.053153848" lon="138.505355408">
      <ele>38.59</ele>
    </trkpt>
    <trkpt lat="-35.053215204" lon="138.505321546">
      <ele>40.03</ele>
    </trkpt>
    <trkpt lat="-35.053308159" lon="138.505308302">
      <ele>41.95</ele>
    </trkpt>
    <trkpt lat="-35.053400109" lon="138.505326491">
      <ele>43.4</ele>
    </trkpt>
    <trkpt lat="-35.053545451" lon="138.505330179">
      <ele>45.32</ele>
    </trkpt>
    <trkpt lat="-35.05362357" lon="138.505324144">
      <ele>46.28</ele>
    </trkpt>
    <trkpt lat="-35.053709568" lon="138.505353229">
      <ele>47.72</ele>
    </trkpt>
    <trkpt lat="-35.053813336" lon="138.505337471">
      <ele>48.68</ele>
    </trkpt>
    <trkpt lat="-35.053881984" lon="138.505325401">
      <ele>48.68</ele>
    </trkpt>
    <trkpt lat="-35.053978879" lon="138.505317019">
      <ele>48.2</ele>
    </trkpt>
    <trkpt lat="-35.054087592" lon="138.505290365">
      <ele>48.2</ele>
    </trkpt>
    <trkpt lat="-35.054203263" lon="138.505173186">
      <ele>46.76</ele>
    </trkpt>
    <trkpt lat="-35.054340726" lon="138.505083751">
      <ele>46.28</ele>
    </trkpt>
    <trkpt lat="-35.054440387" lon="138.50503807">
      <ele>45.32</ele>
    </trkpt>
    <trkpt lat="-35.054588662" lon="138.504974032">
      <ele>45.32</ele>
    </trkpt>
    <trkpt lat="-35.054688575" lon="138.50490748">
      <ele>44.36</ele>
    </trkpt>
    <trkpt lat="-35.05482411" lon="138.504876047">
      <ele>44.36</ele>
    </trkpt>
    <trkpt lat="-35.054848837" lon="138.504871186">
      <ele>42.92</ele>
    </trkpt>
    <trkpt lat="-35.054931901" lon="138.504873533">
      <ele>42.44</ele>
    </trkpt>
    <trkpt lat="-35.055024941" lon="138.504879568">
      <ele>40.99</ele>
    </trkpt>
    <trkpt lat="-35.055106748" lon="138.504876969">
      <ele>40.03</ele>
    </trkpt>
    <trkpt lat="-35.055174055" lon="138.50490354">
      <ele>40.51</ele>
    </trkpt>
    <trkpt lat="-35.055233566" lon="138.505057096">
      <ele>40.03</ele>
    </trkpt>
    <trkpt lat="-35.055273129" lon="138.505170671">
      <ele>40.99</ele>
    </trkpt>
    <trkpt lat="-35.055324594" lon="138.50526128">
      <ele>42.44</ele>
    </trkpt>
    <trkpt lat="-35.055396846" lon="138.505307129">
      <ele>42.44</ele>
    </trkpt>
    <trkpt lat="-35.055454178" lon="138.505296232">
      <ele>42.92</ele>
    </trkpt>
    <trkpt lat="-35.055456106" lon="138.505173102">
      <ele>42.92</ele>
    </trkpt>
    <trkpt lat="-35.055461051" lon="138.505030526">
      <ele>42.44</ele>
    </trkpt>
    <trkpt lat="-35.055453172" lon="138.504930278">
      <ele>39.55</ele>
    </trkpt>
    <trkpt lat="-35.055436324" lon="138.504808238">
      <ele>39.07</ele>
    </trkpt>
    <trkpt lat="-35.055431379" lon="138.504711511">
      <ele>39.07</ele>
    </trkpt>
    <trkpt lat="-35.055452166" lon="138.504652334">
      <ele>39.07</ele>
    </trkpt>
    <trkpt lat="-35.055448143" lon="138.504564073">
      <ele>40.03</ele>
    </trkpt>
    <trkpt lat="-35.055483766" lon="138.504525349">
      <ele>40.03</ele>
    </trkpt>
    <trkpt lat="-35.055528274" lon="138.504519314">
      <ele>41.47</ele>
    </trkpt>
    <trkpt lat="-35.055648973" lon="138.504498778">
      <ele>40.03</ele>
    </trkpt>
    <trkpt lat="-35.055762716" lon="138.504479416">
      <ele>39.07</ele>
    </trkpt>
    <trkpt lat="-35.055877967" lon="138.50445603">
      <ele>38.59</ele>
    </trkpt>
    <trkpt lat="-35.055980729" lon="138.504435411">
      <ele>38.59</ele>
    </trkpt>
    <trkpt lat="-35.056070751" lon="138.504406409">
      <ele>38.11</ele>
    </trkpt>
    <trkpt lat="-35.056168651" lon="138.504366428">
      <ele>35.23</ele>
    </trkpt>
    <trkpt lat="-35.056213159" lon="138.504339773">
      <ele>35.23</ele>
    </trkpt>
    <trkpt lat="-35.056245849" lon="138.504297361">
      <ele>31.86</ele>
    </trkpt>
    <trkpt lat="-35.056273593" lon="138.504256122">
      <ele>31.86</ele>
    </trkpt>
    <trkpt lat="-35.056395382" lon="138.504247572">
      <ele>28.98</ele>
    </trkpt>
    <trkpt lat="-35.056441985" lon="138.504196024">
      <ele>24.65</ele>
    </trkpt>
    <trkpt lat="-35.056481548" lon="138.504165178">
      <ele>22.25</ele>
    </trkpt>
    <trkpt lat="-35.056541981" lon="138.504133662">
      <ele>22.25</ele>
    </trkpt>
    <trkpt lat="-35.056589339" lon="138.504131231">
      <ele>19.84</ele>
    </trkpt>
    <trkpt lat="-35.056715151" lon="138.504255954">
      <ele>18.88</ele>
    </trkpt>
    <trkpt lat="-35.056784553" lon="138.504361315">
      <ele>20.32</ele>
    </trkpt>
    <trkpt lat="-35.056845909" lon="138.504398782">
      <ele>20.32</ele>
    </trkpt>
    <trkpt lat="-35.05685186" lon="138.504318986">
      <ele>16.96</ele>
    </trkpt>
    <trkpt lat="-35.056952862" lon="138.504334828">
      <ele>22.25</ele>
    </trkpt>
    <trkpt lat="-35.05699343" lon="138.504355447">
      <ele>22.25</ele>
    </trkpt>
    <trkpt lat="-35.057007009" lon="138.504302977">
      <ele>26.09</ele>
    </trkpt>
    <trkpt lat="-35.057016145" lon="138.504218906">
      <ele>28.5</ele>
    </trkpt>
    <trkpt lat="-35.057020085" lon="138.504107678">
      <ele>31.86</ele>
    </trkpt>
    <trkpt lat="-35.057037938" lon="138.504007263">
      <ele>31.86</ele>
    </trkpt>
    <trkpt lat="-35.057150675" lon="138.504038863">
      <ele>34.74</ele>
    </trkpt>
    <trkpt lat="-35.057244971" lon="138.50403836">
      <ele>36.67</ele>
    </trkpt>
    <trkpt lat="-35.057344884" lon="138.504039617">
      <ele>39.07</ele>
    </trkpt>
    <trkpt lat="-35.057415208" lon="138.504104996">
      <ele>40.51</ele>
    </trkpt>
    <trkpt lat="-35.057489388" lon="138.504111115">
      <ele>41.95</ele>
    </trkpt>
    <trkpt lat="-35.057552671" lon="138.504092926">
      <ele>42.92</ele>
    </trkpt>
    <trkpt lat="-35.057645626" lon="138.504039785">
      <ele>43.4</ele>
    </trkpt>
    <trkpt lat="-35.057743527" lon="138.504012041">
      <ele>42.44</ele>
    </trkpt>
    <trkpt lat="-35.057819718" lon="138.504007263">
      <ele>43.4</ele>
    </trkpt>
    <trkpt lat="-35.057981825" lon="138.503913051">
      <ele>43.88</ele>
    </trkpt>
    <trkpt lat="-35.058068829" lon="138.503911877">
      <ele>45.32</ele>
    </trkpt>
    <trkpt lat="-35.058168741" lon="138.503844235">
      <ele>45.32</ele>
    </trkpt>
    <trkpt lat="-35.05824686" lon="138.503809199">
      <ele>45.8</ele>
    </trkpt>
    <trkpt lat="-35.058330931" lon="138.503815234">
      <ele>45.8</ele>
    </trkpt>
    <trkpt lat="-35.05840905" lon="138.503817664">
      <ele>45.32</ele>
    </trkpt>
    <trkpt lat="-35.058501" lon="138.503824873">
      <ele>44.36</ele>
    </trkpt>
    <trkpt lat="-35.058547435" lon="138.503825041">
      <ele>44.36</ele>
    </trkpt>
    <trkpt lat="-35.058681881" lon="138.503745245">
      <ele>43.88</ele>
    </trkpt>
    <trkpt lat="-35.058768885" lon="138.503687158">
      <ele>43.88</ele>
    </trkpt>
    <trkpt lat="-35.058823032" lon="138.503615996">
      <ele>41.47</ele>
    </trkpt>
    <trkpt lat="-35.05889101" lon="138.503554976">
      <ele>37.15</ele>
    </trkpt>
    <trkpt lat="-35.058986982" lon="138.503570985">
      <ele>35.71</ele>
    </trkpt>
    <trkpt lat="-35.059063677" lon="138.503545839">
      <ele>37.15</ele>
    </trkpt>
    <trkpt lat="-35.059117069" lon="138.503482975">
      <ele>37.15</ele>
    </trkpt>
    <trkpt lat="-35.059185298" lon="138.503464786">
      <ele>40.51</ele>
    </trkpt>
    <trkpt lat="-35.059288647" lon="138.503466547">
      <ele>40.99</ele>
    </trkpt>
    <trkpt lat="-35.0593697" lon="138.503403598">
      <ele>42.44</ele>
    </trkpt>
    <trkpt lat="-35.059442874" lon="138.503344171">
      <ele>41.47</ele>
    </trkpt>
    <trkpt lat="-35.059515126" lon="138.503355067">
      <ele>41.47</ele>
    </trkpt>
    <trkpt lat="-35.05951806" lon="138.503321121">
      <ele>39.07</ele>
    </trkpt>
    <trkpt lat="-35.059549743" lon="138.503328329">
      <ele>39.07</ele>
    </trkpt>
    <trkpt lat="-35.059553683" lon="138.503294466">
      <ele>39.07</ele>
    </trkpt>
    <trkpt lat="-35.059619062" lon="138.503319863">
      <ele>34.26</ele>
    </trkpt>
    <trkpt lat="-35.059638843" lon="138.503293209">
      <ele>34.26</ele>
    </trkpt>
    <trkpt lat="-35.059689302" lon="138.503347775">
      <ele>28.98</ele>
    </trkpt>
    <trkpt lat="-35.059718974" lon="138.503328497">
      <ele>28.98</ele>
    </trkpt>
    <trkpt lat="-35.059691314" lon="138.503200086">
      <ele>25.61</ele>
    </trkpt>
    <trkpt lat="-35.059760129" lon="138.503187345">
      <ele>25.61</ele>
    </trkpt>
    <trkpt lat="-35.059762141" lon="138.503165636">
      <ele>25.61</ele>
    </trkpt>
    <trkpt lat="-35.059847217" lon="138.503157254">
      <ele>25.61</ele>
    </trkpt>
    <trkpt lat="-35.059856102" lon="138.503204444">
      <ele>29.46</ele>
    </trkpt>
    <trkpt lat="-35.059923409" lon="138.503189944">
      <ele>32.82</ele>
    </trkpt>
    <trkpt lat="-35.059982752" lon="138.503173096">
      <ele>36.67</ele>
    </trkpt>
    <trkpt lat="-35.060119461" lon="138.503165636">
      <ele>39.55</ele>
    </trkpt>
    <trkpt lat="-35.06023421" lon="138.503105203">
      <ele>40.51</ele>
    </trkpt>
    <trkpt lat="-35.060311323" lon="138.503051978">
      <ele>40.03</ele>
    </trkpt>
    <trkpt lat="-35.060391454" lon="138.503035046">
      <ele>39.55</ele>
    </trkpt>
    <trkpt lat="-35.060436968" lon="138.503035046">
      <ele>39.07</ele>
    </trkpt>
    <trkpt lat="-35.060520032" lon="138.502958855">
      <ele>39.55</ele>
    </trkpt>
    <trkpt lat="-35.060581388" lon="138.502911665">
      <ele>38.11</ele>
    </trkpt>
    <trkpt lat="-35.060707368" lon="138.50292474">
      <ele>35.23</ele>
    </trkpt>
    <trkpt lat="-35.060795462" lon="138.502918789">
      <ele>36.19</ele>
    </trkpt>
    <trkpt lat="-35.060875509" lon="138.502836563">
      <ele>36.19</ele>
    </trkpt>
    <trkpt lat="-35.060948767" lon="138.502785852">
      <ele>39.07</ele>
    </trkpt>
    <trkpt lat="-35.060997214" lon="138.502736315">
      <ele>39.55</ele>
    </trkpt>
    <trkpt lat="-35.06105857" lon="138.502756851">
      <ele>40.99</ele>
    </trkpt>
    <trkpt lat="-35.061123865" lon="138.502772609">
      <ele>40.99</ele>
    </trkpt>
    <trkpt lat="-35.061186142" lon="138.502711002">
      <ele>40.03</ele>
    </trkpt>
    <trkpt lat="-35.06124448" lon="138.502667416">
      <ele>39.07</ele>
    </trkpt>
    <trkpt lat="-35.061378004" lon="138.502608994">
      <ele>38.59</ele>
    </trkpt>
    <trkpt lat="-35.061467355" lon="138.502524169">
      <ele>37.63</ele>
    </trkpt>
    <trkpt lat="-35.061566262" lon="138.50244429">
      <ele>37.63</ele>
    </trkpt>
    <trkpt lat="-35.061635496" lon="138.502428615">
      <ele>37.63</ele>
    </trkpt>
    <trkpt lat="-35.061766086" lon="138.502418976">
      <ele>37.15</ele>
    </trkpt>
    <trkpt lat="-35.061827358" lon="138.502418976">
      <ele>36.67</ele>
    </trkpt>
    <trkpt lat="-35.061897598" lon="138.502398441">
      <ele>33.78</ele>
    </trkpt>
    <trkpt lat="-35.061976807" lon="138.502247315">
      <ele>33.3</ele>
    </trkpt>
    <trkpt lat="-35.06204797" lon="138.502188893">
      <ele>35.71</ele>
    </trkpt>
    <trkpt lat="-35.062145954" lon="138.502227617">
      <ele>38.11</ele>
    </trkpt>
    <trkpt lat="-35.062218206" lon="138.50222636">
      <ele>38.59</ele>
    </trkpt>
    <trkpt lat="-35.062350724" lon="138.502139356">
      <ele>38.11</ele>
    </trkpt>
    <trkpt lat="-35.062449714" lon="138.502086131">
      <ele>38.11</ele>
    </trkpt>
    <trkpt lat="-35.062540742" lon="138.502059393">
      <ele>37.15</ele>
    </trkpt>
    <trkpt lat="-35.062604109" lon="138.502038773">
      <ele>37.63</ele>
    </trkpt>
    <trkpt lat="-35.062646773" lon="138.501974568">
      <ele>34.74</ele>
    </trkpt>
    <trkpt lat="-35.062719528" lon="138.501920924">
      <ele>30.42</ele>
    </trkpt>
    <trkpt lat="-35.062739393" lon="138.501968114">
      <ele>30.42</ele>
    </trkpt>
    <trkpt lat="-35.062767137" lon="138.50205889">
      <ele>28.02</ele>
    </trkpt>
    <trkpt lat="-35.06278893" lon="138.501964509">
      <ele>22.25</ele>
    </trkpt>
    <trkpt lat="-35.062881047" lon="138.50199963">
      <ele>22.25</ele>
    </trkpt>
    <trkpt lat="-35.062873084" lon="138.501900388">
      <ele>16.48</ele>
    </trkpt>
    <trkpt lat="-35.062875096" lon="138.501830231">
      <ele>16.48</ele>
    </trkpt>
    <trkpt lat="-35.062927566" lon="138.501762506">
      <ele>15.04</ele>
    </trkpt>
    <trkpt lat="-35.062994873" lon="138.501865352">
      <ele>19.84</ele>
    </trkpt>
    <trkpt lat="-35.06304726" lon="138.501778264">
      <ele>22.73</ele>
    </trkpt>
    <trkpt lat="-35.063121524" lon="138.501697294">
      <ele>26.09</ele>
    </trkpt>
    <trkpt lat="-35.063211462" lon="138.501619427">
      <ele>29.94</ele>
    </trkpt>
    <trkpt lat="-35.063297627" lon="138.5015372">
      <ele>33.3</ele>
    </trkpt>
    <trkpt lat="-35.063412376" lon="138.501469474">
      <ele>35.23</ele>
    </trkpt>
    <trkpt lat="-35.063488567" lon="138.501428403">
      <ele>36.67</ele>
    </trkpt>
    <trkpt lat="-35.063589485" lon="138.501395797">
      <ele>37.63</ele>
    </trkpt>
    <trkpt lat="-35.063692331" lon="138.501359504">
      <ele>38.59</ele>
    </trkpt>
    <trkpt lat="-35.063777408" lon="138.50132321">
      <ele>38.59</ele>
    </trkpt>
    <trkpt lat="-35.063826023" lon="138.501312146">
      <ele>40.51</ele>
    </trkpt>
    <trkpt lat="-35.063941777" lon="138.501331508">
      <ele>40.99</ele>
    </trkpt>
    <trkpt lat="-35.064057531" lon="138.501257831">
      <ele>41.95</ele>
    </trkpt>
    <trkpt lat="-35.064161383" lon="138.501199828">
      <ele>41.95</ele>
    </trkpt>
    <trkpt lat="-35.064287949" lon="138.501132103">
      <ele>42.44</ele>
    </trkpt>
    <trkpt lat="-35.064365147" lon="138.50108617">
      <ele>42.44</ele>
    </trkpt>
    <trkpt lat="-35.064463634" lon="138.501036633">
      <ele>42.44</ele>
    </trkpt>
    <trkpt lat="-35.064532869" lon="138.501005201">
      <ele>42.44</ele>
    </trkpt>
    <trkpt lat="-35.064630769" lon="138.500981061">
      <ele>42.44</ele>
    </trkpt>
    <trkpt lat="-35.064727999" lon="138.500977037">
      <ele>41.47</ele>
    </trkpt>
    <trkpt lat="-35.064809807" lon="138.500964129">
      <ele>40.03</ele>
    </trkpt>
    <trkpt lat="-35.064879041" lon="138.500902439">
      <ele>40.03</ele>
    </trkpt>
    <trkpt lat="-35.064928494" lon="138.500802107">
      <ele>38.11</ele>
    </trkpt>
    <trkpt lat="-35.065011643" lon="138.500716276">
      <ele>35.23</ele>
    </trkpt>
    <trkpt lat="-35.065080877" lon="138.50063405">
      <ele>34.26</ele>
    </trkpt>
    <trkpt lat="-35.06513603" lon="138.50053397">
      <ele>34.26</ele>
    </trkpt>
    <trkpt lat="-35.065208031" lon="138.500473034">
      <ele>37.15</ele>
    </trkpt>
    <trkpt lat="-35.065306099" lon="138.50044244">
      <ele>37.63</ele>
    </trkpt>
    <trkpt lat="-35.065406095" lon="138.50040732">
      <ele>38.59</ele>
    </trkpt>
    <trkpt lat="-35.065482203" lon="138.500390472">
      <ele>39.55</ele>
    </trkpt>
    <trkpt lat="-35.065579182" lon="138.500315538">
      <ele>40.99</ele>
    </trkpt>
    <trkpt lat="-35.065662246" lon="138.500239346">
      <ele>41.47</ele>
    </trkpt>
    <trkpt lat="-35.065750256" lon="138.500170531">
      <ele>42.44</ele>
    </trkpt>
    <trkpt lat="-35.065811528" lon="138.500108924">
      <ele>42.92</ele>
    </trkpt>
    <trkpt lat="-35.065912446" lon="138.500025524">
      <ele>41.95</ele>
    </trkpt>
    <trkpt lat="-35.066042785" lon="138.499974394">
      <ele>42.44</ele>
    </trkpt>
    <trkpt lat="-35.066134734" lon="138.499936927">
      <ele>42.44</ele>
    </trkpt>
    <trkpt lat="-35.066187121" lon="138.499842715">
      <ele>42.92</ele>
    </trkpt>
    <trkpt lat="-35.066231629" lon="138.499794351">
      <ele>41.47</ele>
    </trkpt>
    <trkpt lat="-35.066308742" lon="138.499715813">
      <ele>39.55</ele>
    </trkpt>
    <trkpt lat="-35.066373032" lon="138.499656552">
      <ele>39.07</ele>
    </trkpt>
    <trkpt lat="-35.066486774" lon="138.499593688">
      <ele>37.63</ele>
    </trkpt>
    <trkpt lat="-35.066592637" lon="138.499535602">
      <ele>37.15</ele>
    </trkpt>
    <trkpt lat="-35.066693556" lon="138.499499392">
      <ele>36.67</ele>
    </trkpt>
    <trkpt lat="-35.066803023" lon="138.499438707">
      <ele>36.67</ele>
    </trkpt>
    <trkpt lat="-35.066898912" lon="138.499389086">
      <ele>36.67</ele>
    </trkpt>
    <trkpt lat="-35.066996897" lon="138.499331083">
      <ele>36.19</ele>
    </trkpt>
    <trkpt lat="-35.067081973" lon="138.499308117">
      <ele>35.71</ele>
    </trkpt>
    <trkpt lat="-35.067173" lon="138.499267045">
      <ele>34.26</ele>
    </trkpt>
    <trkpt lat="-35.067271991" lon="138.499222035">
      <ele>33.78</ele>
    </trkpt>
    <trkpt lat="-35.067364024" lon="138.499191022">
      <ele>34.26</ele>
    </trkpt>
    <trkpt lat="-35.067463014" lon="138.499146011">
      <ele>33.3</ele>
    </trkpt>
    <trkpt lat="-35.067558149" lon="138.499135198">
      <ele>31.86</ele>
    </trkpt>
    <trkpt lat="-35.067670969" lon="138.499120697">
      <ele>31.86</ele>
    </trkpt>
    <trkpt lat="-35.067755124" lon="138.499098988">
      <ele>32.34</ele>
    </trkpt>
    <trkpt lat="-35.067834249" lon="138.499089265">
      <ele>33.78</ele>
    </trkpt>
    <trkpt lat="-35.067935167" lon="138.49906873">
      <ele>34.26</ele>
    </trkpt>
    <trkpt lat="-35.068001468" lon="138.499048194">
      <ele>33.3</ele>
    </trkpt>
    <trkpt lat="-35.068097441" lon="138.499013074">
      <ele>32.82</ele>
    </trkpt>
    <trkpt lat="-35.06818654" lon="138.498947779">
      <ele>31.38</ele>
    </trkpt>
    <trkpt lat="-35.068271784" lon="138.498867061">
      <ele>32.34</ele>
    </trkpt>
    <trkpt lat="-35.068344958" lon="138.49880537">
      <ele>31.38</ele>
    </trkpt>
    <trkpt lat="-35.068385527" lon="138.498771507">
      <ele>31.38</ele>
    </trkpt>
    <trkpt lat="-35.068439925" lon="138.498754576">
      <ele>31.38</ele>
    </trkpt>
    <trkpt lat="-35.068539921" lon="138.498749714">
      <ele>31.86</ele>
    </trkpt>
    <trkpt lat="-35.068629021" lon="138.498738902">
      <ele>31.38</ele>
    </trkpt>
    <trkpt lat="-35.06871108" lon="138.498684503">
      <ele>31.38</ele>
    </trkpt>
    <trkpt lat="-35.068785343" lon="138.498622812">
      <ele>31.86</ele>
    </trkpt>
    <trkpt lat="-35.068864468" lon="138.498543017">
      <ele>30.9</ele>
    </trkpt>
    <trkpt lat="-35.068932027" lon="138.49845903">
      <ele>30.42</ele>
    </trkpt>
    <trkpt lat="-35.069012828" lon="138.498374289">
      <ele>31.38</ele>
    </trkpt>
    <trkpt lat="-35.069071166" lon="138.498304132">
      <ele>31.38</ele>
    </trkpt>
    <trkpt lat="-35.069158254" lon="138.498204974">
      <ele>29.94</ele>
    </trkpt>
    <trkpt lat="-35.069239391" lon="138.498117886">
      <ele>29.46</ele>
    </trkpt>
    <trkpt lat="-35.069301752" lon="138.498065919">
      <ele>29.46</ele>
    </trkpt>
    <trkpt lat="-35.069415495" lon="138.498038091">
      <ele>28.02</ele>
    </trkpt>
    <trkpt lat="-35.069485819" lon="138.497936502">
      <ele>28.5</ele>
    </trkpt>
    <trkpt lat="-35.069600986" lon="138.497833405">
      <ele>28.5</ele>
    </trkpt>
    <trkpt lat="-35.069679189" lon="138.497755956">
      <ele>28.5</ele>
    </trkpt>
    <trkpt lat="-35.069771223" lon="138.49772092">
      <ele>28.02</ele>
    </trkpt>
    <trkpt lat="-35.069856383" lon="138.497683369">
      <ele>27.05</ele>
    </trkpt>
    <trkpt lat="-35.069986051" lon="138.497582953">
      <ele>27.05</ele>
    </trkpt>
    <trkpt lat="-35.070079761" lon="138.497557472">
      <ele>26.57</ele>
    </trkpt>
    <trkpt lat="-35.070179757" lon="138.497532075">
      <ele>26.57</ele>
    </trkpt>
    <trkpt lat="-35.070267851" lon="138.49752604">
      <ele>25.61</ele>
    </trkpt>
    <trkpt lat="-35.070372792" lon="138.497544229">
      <ele>25.61</ele>
    </trkpt>
    <trkpt lat="-35.070468849" lon="138.497567195">
      <ele>26.57</ele>
    </trkpt>
    <trkpt lat="-35.070594577" lon="138.497615559">
      <ele>27.53</ele>
    </trkpt>
    <trkpt lat="-35.070640091" lon="138.497602316">
      <ele>27.53</ele>
    </trkpt>
    <trkpt lat="-35.070651909" lon="138.497567195">
      <ele>29.94</ele>
    </trkpt>
    <trkpt lat="-35.070692562" lon="138.497432917">
      <ele>30.42</ele>
    </trkpt>
    <trkpt lat="-35.070734555" lon="138.497374579">
      <ele>29.94</ele>
    </trkpt>
    <trkpt lat="-35.070829522" lon="138.49732982">
      <ele>28.98</ele>
    </trkpt>
    <trkpt lat="-35.070937984" lon="138.497344991">
      <ele>29.46</ele>
    </trkpt>
    <trkpt lat="-35.071033454" lon="138.497367287">
      <ele>29.46</ele>
    </trkpt>
    <trkpt lat="-35.071137473" lon="138.497430151">
      <ele>28.02</ele>
    </trkpt>
    <trkpt lat="-35.071220705" lon="138.497508774">
      <ele>27.05</ele>
    </trkpt>
    <trkpt lat="-35.071265968" lon="138.497588988">
      <ele>27.53</ele>
    </trkpt>
    <trkpt lat="-35.071331011" lon="138.497681022">
      <ele>26.57</ele>
    </trkpt>
    <trkpt lat="-35.071407873" lon="138.497750759">
      <ele>25.13</ele>
    </trkpt>
    <trkpt lat="-35.071510971" lon="138.497819072">
      <ele>23.69</ele>
    </trkpt>
    <trkpt lat="-35.071624881" lon="138.497877158">
      <ele>22.73</ele>
    </trkpt>
    <trkpt lat="-35.071699144" lon="138.497924265">
      <ele>23.21</ele>
    </trkpt>
    <trkpt lat="-35.07178925" lon="138.49802711">
      <ele>22.73</ele>
    </trkpt>
    <trkpt lat="-35.071892263" lon="138.498166166">
      <ele>23.21</ele>
    </trkpt>
    <trkpt lat="-35.071937777" lon="138.498104475">
      <ele>24.65</ele>
    </trkpt>
    <trkpt lat="-35.071993265" lon="138.498048736">
      <ele>24.65</ele>
    </trkpt>
    <trkpt lat="-35.072014974" lon="138.498037839">
      <ele>26.57</ele>
    </trkpt>
    <trkpt lat="-35.072054621" lon="138.498020824">
      <ele>26.57</ele>
    </trkpt>
    <trkpt lat="-35.072074989" lon="138.497955026">
      <ele>29.46</ele>
    </trkpt>
    <trkpt lat="-35.072031738" lon="138.497829717">
      <ele>30.9</ele>
    </trkpt>
    <trkpt lat="-35.071994187" lon="138.497683452">
      <ele>32.34</ele>
    </trkpt>
    <trkpt lat="-35.071991002" lon="138.497588988">
      <ele>32.82</ele>
    </trkpt>
    <trkpt lat="-35.072006006" lon="138.497467032">
      <ele>33.3</ele>
    </trkpt>
    <trkpt lat="-35.072038611" lon="138.497349769">
      <ele>31.38</ele>
    </trkpt>
    <trkpt lat="-35.072055962" lon="138.497253042">
      <ele>31.38</ele>
    </trkpt>
    <trkpt lat="-35.072101979" lon="138.497131001">
      <ele>30.9</ele>
    </trkpt>
    <trkpt lat="-35.072158976" lon="138.49702497">
      <ele>30.42</ele>
    </trkpt>
    <trkpt lat="-35.07224204" lon="138.496940983">
      <ele>29.94</ele>
    </trkpt>
    <trkpt lat="-35.072323009" lon="138.496872">
      <ele>29.94</ele>
    </trkpt>
    <trkpt lat="-35.072379587" lon="138.496816428">
      <ele>30.42</ele>
    </trkpt>
    <trkpt lat="-35.072430046" lon="138.496806705">
      <ele>30.42</ele>
    </trkpt>
    <trkpt lat="-35.072507244" lon="138.496815255">
      <ele>30.42</ele>
    </trkpt>
    <trkpt lat="-35.072577484" lon="138.496787427">
      <ele>30.42</ele>
    </trkpt>
    <trkpt lat="-35.072615119" lon="138.496783823">
      <ele>30.42</ele>
    </trkpt>
    <trkpt lat="-35.072716037" lon="138.49674996">
      <ele>30.42</ele>
    </trkpt>
    <trkpt lat="-35.072772279" lon="138.496671254">
      <ele>29.94</ele>
    </trkpt>
    <trkpt lat="-35.072883088" lon="138.496579304">
      <ele>30.42</ele>
    </trkpt>
    <trkpt lat="-35.072980151" lon="138.496507974">
      <ele>30.42</ele>
    </trkpt>
    <trkpt lat="-35.073076123" lon="138.496470507">
      <ele>30.42</ele>
    </trkpt>
    <trkpt lat="-35.073177041" lon="138.496439075">
      <ele>30.42</ele>
    </trkpt>
    <trkpt lat="-35.073243175" lon="138.496396579">
      <ele>29.46</ele>
    </trkpt>
    <trkpt lat="-35.073317355" lon="138.496280489">
      <ele>30.42</ele>
    </trkpt>
    <trkpt lat="-35.073389607" lon="138.496205471">
      <ele>30.9</ele>
    </trkpt>
    <trkpt lat="-35.073445011" lon="138.496115953">
      <ele>30.9</ele>
    </trkpt>
    <trkpt lat="-35.073563028" lon="138.496093992">
      <ele>29.94</ele>
    </trkpt>
    <trkpt lat="-35.073666042" lon="138.496062979">
      <ele>29.46</ele>
    </trkpt>
    <trkpt lat="-35.073756985" lon="138.496032972">
      <ele>28.98</ele>
    </trkpt>
    <trkpt lat="-35.073850527" lon="138.496012772">
      <ele>29.94</ele>
    </trkpt>
    <trkpt lat="-35.073898053" lon="138.495998271">
      <ele>29.94</ele>
    </trkpt>
    <trkpt lat="-35.073912889" lon="138.495942699">
      <ele>29.46</ele>
    </trkpt>
    <trkpt lat="-35.073921774" lon="138.495899113">
      <ele>29.46</ele>
    </trkpt>
    <trkpt lat="-35.074010873" lon="138.495820491">
      <ele>29.94</ele>
    </trkpt>
    <trkpt lat="-35.074087149" lon="138.495812025">
      <ele>29.46</ele>
    </trkpt>
    <trkpt lat="-35.07416904" lon="138.495803978">
      <ele>28.98</ele>
    </trkpt>
    <trkpt lat="-35.074260989" lon="138.495788975">
      <ele>28.02</ele>
    </trkpt>
    <trkpt lat="-35.07435604" lon="138.495743042">
      <ele>27.53</ele>
    </trkpt>
    <trkpt lat="-35.074451007" lon="138.495712029">
      <ele>27.05</ele>
    </trkpt>
    <trkpt lat="-35.074554021" lon="138.495697025">
      <ele>27.05</ele>
    </trkpt>
    <trkpt lat="-35.07464597" lon="138.495682022">
      <ele>25.13</ele>
    </trkpt>
    <trkpt lat="-35.074741021" lon="138.495651009">
      <ele>22.73</ele>
    </trkpt>
    <trkpt lat="-35.074768011" lon="138.495651009">
      <ele>23.21</ele>
    </trkpt>
    <trkpt lat="-35.074822828" lon="138.495685793">
      <ele>24.17</ele>
    </trkpt>
    <trkpt lat="-35.074823834" lon="138.495768104">
      <ele>24.17</ele>
    </trkpt>
    <trkpt lat="-35.074783182" lon="138.495874722">
      <ele>21.77</ele>
    </trkpt>
    <trkpt lat="-35.074764322" lon="138.495924342">
      <ele>20.32</ele>
    </trkpt>
    <trkpt lat="-35.074760383" lon="138.495970359">
      <ele>19.84</ele>
    </trkpt>
    <trkpt lat="-35.07479609" lon="138.496004306">
      <ele>17.44</ele>
    </trkpt>
    <trkpt lat="-35.074827773" lon="138.496028529">
      <ele>16.48</ele>
    </trkpt>
    <trkpt lat="-35.074886279" lon="138.496102374">
      <ele>15.04</ele>
    </trkpt>
    <trkpt lat="-35.074907066" lon="138.496105978">
      <ele>13.12</ele>
    </trkpt>
    <trkpt lat="-35.074959621" lon="138.496080581">
      <ele>13.12</ele>
    </trkpt>
    <trkpt lat="-35.075112926" lon="138.49627479">
      <ele>11.67</ele>
    </trkpt>
    <trkpt lat="-35.075191213" lon="138.496359531">
      <ele>11.19</ele>
    </trkpt>
    <trkpt lat="-35.075257597" lon="138.496455168">
      <ele>10.71</ele>
    </trkpt>
    <trkpt lat="-35.075292299" lon="138.496512081">
      <ele>11.19</ele>
    </trkpt>
    <trkpt lat="-35.075427163" lon="138.496588357">
      <ele>11.19</ele>
    </trkpt>
    <trkpt lat="-35.075501427" lon="138.496590788">
      <ele>11.19</ele>
    </trkpt>
    <trkpt lat="-35.07560553" lon="138.496611407">
      <ele>11.19</ele>
    </trkpt>
    <trkpt lat="-35.075692702" lon="138.496635379">
      <ele>11.67</ele>
    </trkpt>
    <trkpt lat="-35.07577694" lon="138.496653568">
      <ele>11.19</ele>
    </trkpt>
    <trkpt lat="-35.075857239" lon="138.496669326">
      <ele>11.67</ele>
    </trkpt>
    <trkpt lat="-35.076002916" lon="138.496735878">
      <ele>11.67</ele>
    </trkpt>
    <trkpt lat="-35.076062344" lon="138.496732274">
      <ele>11.19</ele>
    </trkpt>
    <trkpt lat="-35.076176338" lon="138.496723725">
      <ele>11.67</ele>
    </trkpt>
    <trkpt lat="-35.076289326" lon="138.496727329">
      <ele>11.67</ele>
    </trkpt>
    <trkpt lat="-35.07639301" lon="138.49673504">
      <ele>12.15</ele>
    </trkpt>
    <trkpt lat="-35.076488899" lon="138.496725988">
      <ele>12.15</ele>
    </trkpt>
    <trkpt lat="-35.076603899" lon="138.496736884">
      <ele>12.63</ele>
    </trkpt>
    <trkpt lat="-35.076690987" lon="138.49674996">
      <ele>13.6</ele>
    </trkpt>
    <trkpt lat="-35.076792156" lon="138.496757504">
      <ele>13.12</ele>
    </trkpt>
    <trkpt lat="-35.076900031" lon="138.496764963">
      <ele>13.6</ele>
    </trkpt>
    <trkpt lat="-35.076996004" lon="138.496779967">
      <ele>14.08</ele>
    </trkpt>
    <trkpt lat="-35.077090971" lon="138.49681098">
      <ele>14.56</ele>
    </trkpt>
    <trkpt lat="-35.077202031" lon="138.496825984">
      <ele>13.6</ele>
    </trkpt>
    <trkpt lat="-35.077316025" lon="138.496825984">
      <ele>14.08</ele>
    </trkpt>
    <trkpt lat="-35.077407975" lon="138.49681098">
      <ele>13.12</ele>
    </trkpt>
    <trkpt lat="-35.077506965" lon="138.496795977">
      <ele>14.08</ele>
    </trkpt>
    <trkpt lat="-35.077606039" lon="138.49673504">
      <ele>13.6</ele>
    </trkpt>
    <trkpt lat="-35.077744843" lon="138.496719701">
      <ele>13.12</ele>
    </trkpt>
    <trkpt lat="-35.077793375" lon="138.496739063">
      <ele>13.6</ele>
    </trkpt>
    <trkpt lat="-35.077914996" lon="138.49674996">
      <ele>13.6</ele>
    </trkpt>
    <trkpt lat="-35.078010969" lon="138.49673504">
      <ele>13.6</ele>
    </trkpt>
    <trkpt lat="-35.078124963" lon="138.49674996">
      <ele>14.08</ele>
    </trkpt>
    <trkpt lat="-35.078260079" lon="138.496778961">
      <ele>15.52</ele>
    </trkpt>
    <trkpt lat="-35.078318501" lon="138.496708721">
      <ele>15.04</ele>
    </trkpt>
    <trkpt lat="-35.078396453" lon="138.496697238">
      <ele>15.52</ele>
    </trkpt>
    <trkpt lat="-35.07847365" lon="138.496681564">
      <ele>16.0</ele>
    </trkpt>
    <trkpt lat="-35.078572724" lon="138.496648874">
      <ele>16.96</ele>
    </trkpt>
  </trkseg>
</trk>
</gpx>
